CCSDS_OMM_VERS = 2.0
CREATION_DATE  = 
ORIGINATOR     = 

OBJECT_NAME    = SL-16 R/B
OBJECT_ID      = 1993-016B
CENTER_NAME    = EARTH
REF_FRAME      = TEME
TIME_SYSTEM    = UTC
MEAN_ELEMENT_THEORY = SGP/SGP4

EPOCH          = 2025-12-17T12:16:13.683072
MEAN_MOTION    = 14.15287774
ECCENTRICITY   = .0007993
INCLINATION    = 71.0079
RA_OF_ASC_NODE = 27.7821
ARG_OF_PERICENTER = 88.4041
MEAN_ANOMALY   = 271.7998

EPHEMERIS_TYPE = 0
CLASSIFICATION_TYPE = U
NORAD_CAT_ID   = 22566
ELEMENT_SET_NO = 999
REV_AT_EPOCH   = 69054
BSTAR          = .11594508E-3
MEAN_MOTION_DOT = .178E-5
MEAN_MOTION_DDOT = 0

CCSDS_OMM_VERS = 2.0
CREATION_DATE  = 
ORIGINATOR     = 

OBJECT_NAME    = COSMOS 2242
OBJECT_ID      = 1993-024A
CENTER_NAME    = EARTH
REF_FRAME      = TEME
TIME_SYSTEM    = UTC
MEAN_ELEMENT_THEORY = SGP/SGP4

EPOCH          = 2025-12-17T10:49:46.001568
MEAN_MOTION    = 14.96125606
ECCENTRICITY   = .001525
INCLINATION    = 82.5184
RA_OF_ASC_NODE = 345.3413
ARG_OF_PERICENTER = 216.9794
MEAN_ANOMALY   = 143.0378

EPHEMERIS_TYPE = 0
CLASSIFICATION_TYPE = U
NORAD_CAT_ID   = 22626
ELEMENT_SET_NO = 999
REV_AT_EPOCH   = 76809
BSTAR          = .15274804E-3
MEAN_MOTION_DOT = .1747E-4
MEAN_MOTION_DDOT = 0

CCSDS_OMM_VERS = 2.0
CREATION_DATE  = 
ORIGINATOR     = 

OBJECT_NAME    = SL-16 R/B
OBJECT_ID      = 1993-059B
CENTER_NAME    = EARTH
REF_FRAME      = TEME
TIME_SYSTEM    = UTC
MEAN_ELEMENT_THEORY = SGP/SGP4

EPOCH          = 2025-12-17T14:27:17.277984
MEAN_MOTION    = 14.17212984
ECCENTRICITY   = .00182327
INCLINATION    = 70.9880
RA_OF_ASC_NODE = 184.2323
ARG_OF_PERICENTER = 328.6837
MEAN_ANOMALY   = 31.3199

EPHEMERIS_TYPE = 0
CLASSIFICATION_TYPE = U
NORAD_CAT_ID   = 22803
ELEMENT_SET_NO = 999
REV_AT_EPOCH   = 66790
BSTAR          = -.26360409E-4
MEAN_MOTION_DOT = -.101E-5
MEAN_MOTION_DDOT = 0

CCSDS_OMM_VERS = 2.0
CREATION_DATE  = 
ORIGINATOR     = 

OBJECT_NAME    = ARIANE 40 R/B
OBJECT_ID      = 1993-061H
CENTER_NAME    = EARTH
REF_FRAME      = TEME
TIME_SYSTEM    = UTC
MEAN_ELEMENT_THEORY = SGP/SGP4

EPOCH          = 2025-12-17T03:46:42.568032
MEAN_MOTION    = 14.32804323
ECCENTRICITY   = .00111364
INCLINATION    = 98.5073
RA_OF_ASC_NODE = 56.6070
ARG_OF_PERICENTER = 163.2166
MEAN_ANOMALY   = 196.9389

EPHEMERIS_TYPE = 0
CLASSIFICATION_TYPE = U
NORAD_CAT_ID   = 22830
ELEMENT_SET_NO = 999
REV_AT_EPOCH   = 68228
BSTAR          = .10133326E-3
MEAN_MOTION_DOT = .233E-5
MEAN_MOTION_DDOT = 0

CCSDS_OMM_VERS = 2.0
CREATION_DATE  = 
ORIGINATOR     = 

OBJECT_NAME    = COSMOS 2278
OBJECT_ID      = 1994-023A
CENTER_NAME    = EARTH
REF_FRAME      = TEME
TIME_SYSTEM    = UTC
MEAN_ELEMENT_THEORY = SGP/SGP4

EPOCH          = 2025-12-17T09:58:56.522208
MEAN_MOTION    = 14.14349051
ECCENTRICITY   = .00080765
INCLINATION    = 71.0536
RA_OF_ASC_NODE = 347.2275
ARG_OF_PERICENTER = 171.6953
MEAN_ANOMALY   = 188.4305

EPHEMERIS_TYPE = 0
CLASSIFICATION_TYPE = U
NORAD_CAT_ID   = 23087
ELEMENT_SET_NO = 999
REV_AT_EPOCH   = 63317
BSTAR          = -.81812437E-4
MEAN_MOTION_DOT = -.204E-5
MEAN_MOTION_DDOT = 0

CCSDS_OMM_VERS = 2.0
CREATION_DATE  = 
ORIGINATOR     = 

OBJECT_NAME    = SL-16 R/B
OBJECT_ID      = 1994-023B
CENTER_NAME    = EARTH
REF_FRAME      = TEME
TIME_SYSTEM    = UTC
MEAN_ELEMENT_THEORY = SGP/SGP4

EPOCH          = 2025-12-17T10:18:03.019104
MEAN_MOTION    = 14.15002484
ECCENTRICITY   = .00016495
INCLINATION    = 70.9997
RA_OF_ASC_NODE = 243.6382
ARG_OF_PERICENTER = 13.2171
MEAN_ANOMALY   = 346.8994

EPHEMERIS_TYPE = 0
CLASSIFICATION_TYPE = U
NORAD_CAT_ID   = 23088
ELEMENT_SET_NO = 999
REV_AT_EPOCH   = 63445
BSTAR          = -.58674143E-4
MEAN_MOTION_DOT = -.161E-5
MEAN_MOTION_DDOT = 0

CCSDS_OMM_VERS = 2.0
CREATION_DATE  = 
ORIGINATOR     = 

OBJECT_NAME    = SL-16 R/B
OBJECT_ID      = 1994-074B
CENTER_NAME    = EARTH
REF_FRAME      = TEME
TIME_SYSTEM    = UTC
MEAN_ELEMENT_THEORY = SGP/SGP4

EPOCH          = 2025-12-17T14:56:43.689696
MEAN_MOTION    = 14.79295260
ECCENTRICITY   = .00078022
INCLINATION    = 97.7197
RA_OF_ASC_NODE = 20.7332
ARG_OF_PERICENTER = 122.2623
MEAN_ANOMALY   = 352.4490

EPHEMERIS_TYPE = 0
CLASSIFICATION_TYPE = U
NORAD_CAT_ID   = 23343
ELEMENT_SET_NO = 999
REV_AT_EPOCH   = 67511
BSTAR          = .61198191E-4
MEAN_MOTION_DOT = .406E-5
MEAN_MOTION_DDOT = 0

CCSDS_OMM_VERS = 2.0
CREATION_DATE  = 
ORIGINATOR     = 

OBJECT_NAME    = SL-16 R/B
OBJECT_ID      = 1994-077B
CENTER_NAME    = EARTH
REF_FRAME      = TEME
TIME_SYSTEM    = UTC
MEAN_ELEMENT_THEORY = SGP/SGP4

EPOCH          = 2025-12-17T14:01:18.056928
MEAN_MOTION    = 14.15552424
ECCENTRICITY   = .00048415
INCLINATION    = 70.9815
RA_OF_ASC_NODE = 165.2221
ARG_OF_PERICENTER = 281.3634
MEAN_ANOMALY   = 78.6945

EPHEMERIS_TYPE = 0
CLASSIFICATION_TYPE = U
NORAD_CAT_ID   = 23405
ELEMENT_SET_NO = 999
REV_AT_EPOCH   = 60461
BSTAR          = .91387593E-4
MEAN_MOTION_DOT = .131E-5
MEAN_MOTION_DDOT = 0

CCSDS_OMM_VERS = 2.0
CREATION_DATE  = 
ORIGINATOR     = 

OBJECT_NAME    = ARIANE 40+ R/B
OBJECT_ID      = 1995-021B
CENTER_NAME    = EARTH
REF_FRAME      = TEME
TIME_SYSTEM    = UTC
MEAN_ELEMENT_THEORY = SGP/SGP4

EPOCH          = 2025-12-17T04:23:49.889184
MEAN_MOTION    = 14.39698890
ECCENTRICITY   = .00072806
INCLINATION    = 98.4648
RA_OF_ASC_NODE = 58.7185
ARG_OF_PERICENTER = 37.9204
MEAN_ANOMALY   = 16.4007

EPHEMERIS_TYPE = 0
CLASSIFICATION_TYPE = U
NORAD_CAT_ID   = 23561
ELEMENT_SET_NO = 999
REV_AT_EPOCH   = 60737
BSTAR          = .10134666E-3
MEAN_MOTION_DOT = .274E-5
MEAN_MOTION_DDOT = 0

CCSDS_OMM_VERS = 2.0
CREATION_DATE  = 
ORIGINATOR     = 

OBJECT_NAME    = SL-16 R/B
OBJECT_ID      = 1995-058B
CENTER_NAME    = EARTH
REF_FRAME      = TEME
TIME_SYSTEM    = UTC
MEAN_ELEMENT_THEORY = SGP/SGP4

EPOCH          = 2025-12-17T10:41:58.907616
MEAN_MOTION    = 14.15483836
ECCENTRICITY   = .00149466
INCLINATION    = 71.0224
RA_OF_ASC_NODE = 352.9240
ARG_OF_PERICENTER = 249.4183
MEAN_ANOMALY   = 110.5337

EPHEMERIS_TYPE = 0
CLASSIFICATION_TYPE = U
NORAD_CAT_ID   = 23705
ELEMENT_SET_NO = 999
REV_AT_EPOCH   = 55621
BSTAR          = -.56316985E-4
MEAN_MOTION_DOT = -.158E-5
MEAN_MOTION_DDOT = 0

CCSDS_OMM_VERS = 2.0
CREATION_DATE  = 
ORIGINATOR     = 

OBJECT_NAME    = SL-16 R/B
OBJECT_ID      = 1996-051B
CENTER_NAME    = EARTH
REF_FRAME      = TEME
TIME_SYSTEM    = UTC
MEAN_ELEMENT_THEORY = SGP/SGP4

EPOCH          = 2025-12-17T10:42:28.940256
MEAN_MOTION    = 14.12397349
ECCENTRICITY   = .0019463
INCLINATION    = 70.7595
RA_OF_ASC_NODE = 349.3216
ARG_OF_PERICENTER = 255.5456
MEAN_ANOMALY   = 104.3504

EPHEMERIS_TYPE = 0
CLASSIFICATION_TYPE = U
NORAD_CAT_ID   = 24298
ELEMENT_SET_NO = 999
REV_AT_EPOCH   = 51003
BSTAR          = .27507014E-4
MEAN_MOTION_DOT = .1E-7
MEAN_MOTION_DDOT = 0

CCSDS_OMM_VERS = 2.0
CREATION_DATE  = 
ORIGINATOR     = 

OBJECT_NAME    = ORBVIEW 2 (SEASTAR)
OBJECT_ID      = 1997-037A
CENTER_NAME    = EARTH
REF_FRAME      = TEME
TIME_SYSTEM    = UTC
MEAN_ELEMENT_THEORY = SGP/SGP4

EPOCH          = 2025-12-17T10:42:29.651328
MEAN_MOTION    = 14.35420630
ECCENTRICITY   = .00014603
INCLINATION    = 98.8459
RA_OF_ASC_NODE = 148.6392
ARG_OF_PERICENTER = 323.2816
MEAN_ANOMALY   = 36.8269

EPHEMERIS_TYPE = 0
CLASSIFICATION_TYPE = U
NORAD_CAT_ID   = 24883
ELEMENT_SET_NO = 999
REV_AT_EPOCH   = 49667
BSTAR          = .10129143E-3
MEAN_MOTION_DOT = .244E-5
MEAN_MOTION_DDOT = 0

