SL-16 R/B               
1 22566U 93016B   25351.51126948  .00000178  00000+0  11595-3 0  9991
2 22566  71.0079  27.7821 0007993  88.4041 271.7998 14.15287774690540
COSMOS 2242             
1 22626U 93024A   25351.45122687  .00001747  00000+0  15275-3 0  9998
2 22626  82.5184 345.3413 0015250 216.9794 143.0378 14.96125606768098
SL-16 R/B               
1 22803U 93059B   25351.60228331 -.00000101  00000+0 -26360-4 0  9996
2 22803  70.9880 184.2323 0018232 328.6837  31.3199 14.17212984667908
ARIANE 40 R/B           
1 22830U 93061H   25351.15743713  .00000233  00000+0  10133-3 0  9999
2 22830  98.5073  56.6070 0011136 163.2166 196.9389 14.32804323682281
COSMOS 2278             
1 23087U 94023A   25351.41593197 -.00000204  00000+0 -81812-4 0  9994
2 23087  71.0536 347.2275 0008076 171.6953 188.4305 14.14349051633178
SL-16 R/B               
1 23088U 94023B   25351.42920161 -.00000161  00000+0 -58674-4 0  9993
2 23088  70.9997 243.6382 0001649  13.2171 346.8994 14.15002484634451
SL-16 R/B               
1 23343U 94074B   25351.62272789  .00000406  00000+0  61198-4 0  9996
2 23343  97.7197  20.7332 0007802 122.2623 352.4490 14.79295260675111
SL-16 R/B               
1 23405U 94077B   25351.58423677  .00000131  00000+0  91388-4 0  9996
2 23405  70.9815 165.2221 0004841 281.3634  78.6945 14.15552424604618
ARIANE 40+ R/B          
1 23561U 95021B   25351.18321631  .00000274  00000+0  10135-3 0  9990
2 23561  98.4648  58.7185 0007280  37.9204  16.4007 14.39698890607372
SL-16 R/B               
1 23705U 95058B   25351.44582069 -.00000158  00000+0 -56317-4 0  9999
2 23705  71.0224 352.9240 0014946 249.4183 110.5337 14.15483836556217
SL-16 R/B               
1 24298U 96051B   25351.44616829  .00000001  00000+0  27507-4 0  9997
2 24298  70.7595 349.3216 0019463 255.5456 104.3504 14.12397349510032
ORBVIEW 2 (SEASTAR)     
1 24883U 97037A   25351.44617652  .00000244  00000+0  10129-3 0  9997
2 24883  98.8459 148.6392 0001460 323.2816  36.8269 14.35420630496673
